[
    {
        "Altitude(m)": 711355.1486710567,
        "Argument of Periapsis(deg)": 0.010251109067964361,
        "Eccentricity": 0.0,
        "Inclination(deg)": 45.0,
        "Latitude(deg)": -29.07637408505144,
        "Longitude(deg)": 172.88430682501382,
        "Mean Anomaly(deg)": 223.10719498273275,
        "RAAN(deg)": 59.99032325268762,
        "Satellite Name": "Constellation 1 277",
        "Satellite Number": 277,
        "Semi-Major Axis(m)": 7083131.272910544,
        "Time(s)": 171
    },
    {
        "Altitude(m)": 711368.910094805,
        "Argument of Periapsis(deg)": 0.010311057074209765,
        "Eccentricity": 0.0,
        "Inclination(deg)": 45.0,
        "Latitude(deg)": -29.112223960427464,
        "Longitude(deg)": 172.93614237717577,
        "Mean Anomaly(deg)": 223.16789612298268,
        "RAAN(deg)": 59.99026666352204,
        "Satellite Name": "Constellation 1 277",
        "Satellite Number": 277,
        "Semi-Major Axis(m)": 7083131.272910544,
        "Time(s)": 172
    },
    {
        "Altitude(m)": 711382.668636803,
        "Argument of Periapsis(deg)": 0.010371005080455171,
        "Eccentricity": 0.0,
        "Inclination(deg)": 45.0,
        "Latitude(deg)": -29.14805021695136,
        "Longitude(deg)": 172.98801656691407,
        "Mean Anomaly(deg)": 223.2285972632326,
        "RAAN(deg)": 59.99021007435647,
        "Satellite Name": "Constellation 1 277",
        "Satellite Number": 277,
        "Semi-Major Axis(m)": 7083131.272910544,
        "Time(s)": 173
    },
    {
        "Altitude(m)": 711396.4242490133,
        "Argument of Periapsis(deg)": 0.010430953086700577,
        "Eccentricity": 0.0,
        "Inclination(deg)": 45.0,
        "Latitude(deg)": -29.183852804545534,
        "Longitude(deg)": 173.0399294525911,
        "Mean Anomaly(deg)": 223.28929840348243,
        "RAAN(deg)": 59.990153485190895,
        "Satellite Name": "Constellation 1 277",
        "Satellite Number": 277,
        "Semi-Major Axis(m)": 7083131.272910544,
        "Time(s)": 174
    },
    {
        "Altitude(m)": 711410.1768833783,
        "Argument of Periapsis(deg)": 0.010490901092945983,
        "Eccentricity": 0.0,
        "Inclination(deg)": 45.0,
        "Latitude(deg)": -29.219631673061674,
        "Longitude(deg)": 173.09188109252605,
        "Mean Anomaly(deg)": 223.3499995437324,
        "RAAN(deg)": 59.990096896025335,
        "Satellite Name": "Constellation 1 277",
        "Satellite Number": 277,
        "Semi-Major Axis(m)": 7083131.272910544,
        "Time(s)": 175
    },
    {
        "Altitude(m)": 711423.9264918561,
        "Argument of Periapsis(deg)": 0.010550849099191389,
        "Eccentricity": 0.0,
        "Inclination(deg)": 45.0,
        "Latitude(deg)": -29.255386772280563,
        "Longitude(deg)": 173.14387154499417,
        "Mean Anomaly(deg)": 223.41070068398224,
        "RAAN(deg)": 59.99004030685976,
        "Satellite Name": "Constellation 1 277",
        "Satellite Number": 277,
        "Semi-Major Axis(m)": 7083131.272910544,
        "Time(s)": 176
    },
    {
        "Altitude(m)": 711437.6730263949,
        "Argument of Periapsis(deg)": 0.010610797105436795,
        "Eccentricity": 0.0,
        "Inclination(deg)": 45.0,
        "Latitude(deg)": -29.291118051912452,
        "Longitude(deg)": 173.1959008682269,
        "Mean Anomaly(deg)": 223.47140182423215,
        "RAAN(deg)": 59.98998371769419,
        "Satellite Name": "Constellation 1 277",
        "Satellite Number": 277,
        "Semi-Major Axis(m)": 7083131.272910544,
        "Time(s)": 177
    },
    {
        "Altitude(m)": 711451.4164389579,
        "Argument of Periapsis(deg)": 0.0106707451116822,
        "Eccentricity": 0.0,
        "Inclination(deg)": 45.0,
        "Latitude(deg)": -29.32682546159619,
        "Longitude(deg)": 173.24796895231336,
        "Mean Anomaly(deg)": 223.532102964482,
        "RAAN(deg)": 59.98992712852862,
        "Satellite Name": "Constellation 1 277",
        "Satellite Number": 277,
        "Semi-Major Axis(m)": 7083131.272910544,
        "Time(s)": 178
    },
    {
        "Altitude(m)": 711465.1566814936,
        "Argument of Periapsis(deg)": 0.010730693117927606,
        "Eccentricity": 0.0,
        "Inclination(deg)": 45.0,
        "Latitude(deg)": -29.362508950900985,
        "Longitude(deg)": 173.30007619158908,
        "Mean Anomaly(deg)": 223.59280410473195,
        "RAAN(deg)": 59.98987053936306,
        "Satellite Name": "Constellation 1 277",
        "Satellite Number": 277,
        "Semi-Major Axis(m)": 7083131.272910544,
        "Time(s)": 179
    },
    {
        "Altitude(m)": 711478.8937059551,
        "Argument of Periapsis(deg)": 0.01079064112417301,
        "Eccentricity": 0.0,
        "Inclination(deg)": 45.0,
        "Latitude(deg)": -29.398168469323927,
        "Longitude(deg)": 173.3522224760515,
        "Mean Anomaly(deg)": 223.65350524498186,
        "RAAN(deg)": 59.98981395019749,
        "Satellite Name": "Constellation 1 277",
        "Satellite Number": 277,
        "Semi-Major Axis(m)": 7083131.272910544,
        "Time(s)": 180
    },
    {
        "Altitude(m)": 711492.6274643088,
        "Argument of Periapsis(deg)": 0.010850589130418416,
        "Eccentricity": 0.0,
        "Inclination(deg)": 45.0,
        "Latitude(deg)": -29.433803966291535,
        "Longitude(deg)": 173.40440786374913,
        "Mean Anomaly(deg)": 223.71420638523176,
        "RAAN(deg)": 59.98975736103191,
        "Satellite Name": "Constellation 1 277",
        "Satellite Number": 277,
        "Semi-Major Axis(m)": 7083131.272910544,
        "Time(s)": 181
    },
    {
        "Altitude(m)": 711506.3579085094,
        "Argument of Periapsis(deg)": 0.01091053713666382,
        "Eccentricity": 0.0,
        "Inclination(deg)": 45.0,
        "Latitude(deg)": -29.469415391159323,
        "Longitude(deg)": 173.45663241268295,
        "Mean Anomaly(deg)": 223.77490752548164,
        "RAAN(deg)": 59.98970077186634,
        "Satellite Name": "Constellation 1 277",
        "Satellite Number": 277,
        "Semi-Major Axis(m)": 7083131.272910544,
        "Time(s)": 182
    },
    {
        "Altitude(m)": 711520.0849905246,
        "Argument of Periapsis(deg)": 0.010970485142909228,
        "Eccentricity": 0.0,
        "Inclination(deg)": 45.0,
        "Latitude(deg)": -29.505002693211765,
        "Longitude(deg)": 173.50889618080626,
        "Mean Anomaly(deg)": 223.83560866573154,
        "RAAN(deg)": 59.989644182700786,
        "Satellite Name": "Constellation 1 277",
        "Satellite Number": 277,
        "Semi-Major Axis(m)": 7083131.272910544,
        "Time(s)": 183
    },
    {
        "Altitude(m)": 711533.8086623168,
        "Argument of Periapsis(deg)": 0.011030433149154634,
        "Eccentricity": 0.0,
        "Inclination(deg)": 45.0,
        "Latitude(deg)": -29.540565821662273,
        "Longitude(deg)": 173.5611992260237,
        "Mean Anomaly(deg)": 223.89630980598142,
        "RAAN(deg)": 59.98958759353521,
        "Satellite Name": "Constellation 1 277",
        "Satellite Number": 277,
        "Semi-Major Axis(m)": 7083131.272910544,
        "Time(s)": 184
    },
    {
        "Altitude(m)": 711547.5288758539,
        "Argument of Periapsis(deg)": 0.01109038115540004,
        "Eccentricity": 0.0,
        "Inclination(deg)": 45.0,
        "Latitude(deg)": -29.57610472565266,
        "Longitude(deg)": 173.6135414380938,
        "Mean Anomaly(deg)": 223.95701094623132,
        "RAAN(deg)": 59.98953100436964,
        "Satellite Name": "Constellation 1 277",
        "Satellite Number": 277,
        "Semi-Major Axis(m)": 7083131.272910544,
        "Time(s)": 185
    },
    {
        "Altitude(m)": 711561.245583103,
        "Argument of Periapsis(deg)": 0.011150329161645444,
        "Eccentricity": 0.0,
        "Inclination(deg)": 45.0,
        "Latitude(deg)": -29.611619354254753,
        "Longitude(deg)": 173.66592321101672,
        "Mean Anomaly(deg)": 224.01771208648128,
        "RAAN(deg)": 59.989474415204064,
        "Satellite Name": "Constellation 1 277",
        "Satellite Number": 277,
        "Semi-Major Axis(m)": 7083131.272910544,
        "Time(s)": 186
    },
    {
        "Altitude(m)": 711574.9587360389,
        "Argument of Periapsis(deg)": 0.01121027716789085,
        "Eccentricity": 0.0,
        "Inclination(deg)": 45.0,
        "Latitude(deg)": -29.64710965646786,
        "Longitude(deg)": 173.7183444344506,
        "Mean Anomaly(deg)": 224.0784132267311,
        "RAAN(deg)": 59.989417826038505,
        "Satellite Name": "Constellation 1 277",
        "Satellite Number": 277,
        "Semi-Major Axis(m)": 7083131.272910544,
        "Time(s)": 187
    },
    {
        "Altitude(m)": 711588.6682866389,
        "Argument of Periapsis(deg)": 0.011270225174136258,
        "Eccentricity": 0.0,
        "Inclination(deg)": 45.0,
        "Latitude(deg)": -29.68257558122067,
        "Longitude(deg)": 173.77080516610033,
        "Mean Anomaly(deg)": 224.1391143669811,
        "RAAN(deg)": 59.98936123687293,
        "Satellite Name": "Constellation 1 277",
        "Satellite Number": 277,
        "Semi-Major Axis(m)": 7083131.272910544,
        "Time(s)": 188
    },
    {
        "Altitude(m)": 711602.3741868823,
        "Argument of Periapsis(deg)": 0.011330173180381662,
        "Eccentricity": 0.0,
        "Inclination(deg)": 45.0,
        "Latitude(deg)": -29.718017077370327,
        "Longitude(deg)": 173.82330546361848,
        "Mean Anomaly(deg)": 224.19981550723088,
        "RAAN(deg)": 59.98930464770736,
        "Satellite Name": "Constellation 1 277",
        "Satellite Number": 277,
        "Semi-Major Axis(m)": 7083131.272910544,
        "Time(s)": 189
    }
]